NORAD_CAT_ID,OBJECT_NAME,OBJECT_TYPE,EPOCH,MEAN_MOTION,ECCENTRICITY,INCLINATION,RA_OF_ASC_NODE,ARG_OF_PERICENTER,MEAN_ANOMALY,BSTAR,MEAN_MOTION_DOT,MEAN_MOTION_DDOT,TLE_LINE0,TLE_LINE1,TLE_LINE2,SEMIMAJOR_AXIS,PERIOD,APOGEE,PERIGEE,DECAYED
55419.0,STARLINK-5629,PAYLOAD,2023-11-07 11:54:28,14.9830448,0.0002909,70.0004,75.5981,270.7861,89.2964,-0.00029337,-3.589e-05,0.0,0 STARLINK-5629,1 55419U 23014AE  23311.49616839 -.00003589  00000-0 -29337-3 0  9994,2 55419  70.0004  75.5981 0002909 270.7861  89.2964 14.98304480 42828,6950.272,96.109,574.159,570.115,0.0
55419.0,STARLINK-5629,PAYLOAD,2023-11-07 15:06:44,14.98321192,0.0002437,70.0009,75.262,263.6744,96.4138,-0.00020484,-2.535e-05,0.0,0 STARLINK-5629,1 55419U 23014AE  23311.62967754 -.00002535  00000-0 -20484-3 0  9998,2 55419  70.0009  75.2620 0002437 263.6744  96.4138 14.98321192 43785,6950.22,96.108,573.779,570.391,0.0
55419.0,STARLINK-5629,PAYLOAD,2023-11-07 18:19:00,14.98314093,0.0002799,70.0006,74.9253,267.5281,92.5558,-0.00027628,-3.386e-05,0.0,0 STARLINK-5629,1 55419U 23014AE  23311.76320460 -.00003386  00000-0 -27628-3 0  9992,2 55419  70.0006  74.9253 0002799 267.5281  92.5558 14.98314093 42863,6950.242,96.108,574.052,570.162,0.0
55419.0,STARLINK-5629,PAYLOAD,2023-11-08 11:56:29,14.98321496,0.0002843,70.0009,73.0733,277.664,82.4196,-9.7738e-05,-1.259e-05,0.0,0 STARLINK-5629,1 55419U 23014AE  23312.49756001 -.00001259  00000-0 -97738-4 0  9994,2 55419  70.0009  73.0733 0002843 277.6640  82.4196 14.98321496 42973,6950.219,96.108,574.06,570.108,0.0
55419.0,STARLINK-5629,PAYLOAD,2023-11-08 13:32:36,14.98326006,0.000255,70.0015,72.9054,266.9679,93.1188,-5.849e-05,-7.91e-06,0.0,0 STARLINK-5629,1 55419U 23014AE  23312.56431612 -.00000791  00000-0 -58490-4 0  9992,2 55419  70.0015  72.9054 0002550 266.9679  93.1188 14.98326006 43920,6950.205,96.107,573.843,570.298,0.0
55419.0,STARLINK-5629,PAYLOAD,2023-11-08 18:21:00,14.98332373,0.0002684,70.0015,72.4003,280.5159,79.5697,-1.4219e-05,-2.63e-06,0.0,0 STARLINK-5629,1 55419U 23014AE  23312.76459259 -.00000263  00000-0 -14219-4 0  9996,2 55419  70.0015  72.4003 0002684 280.5159  79.5697 14.98332373 43019,6950.186,96.107,573.916,570.185,0.0
55419.0,STARLINK-5629,PAYLOAD,2023-11-09 11:58:31,14.98257332,0.0001688,70.0013,70.5506,266.5224,93.5742,0.0013075,0.00015512,0.0,0 STARLINK-5629,1 55419U 23014AE  23313.49897302  .00015512  00000-0  13075-2 0  9990,2 55419  70.0013  70.5506 0001688 266.5224  93.5742 14.98257332 43124,6950.418,96.112,573.456,571.109,0.0
55419.0,STARLINK-5629,PAYLOAD,2023-11-09 13:34:37,14.98330549,0.0002262,70.0017,70.3822,271.0056,89.0844,2.8727e-05,2.5e-06,0.0,0 STARLINK-5629,1 55419U 23014AE  23313.56571388  .00000250  00000-0  28727-4 0  9996,2 55419  70.0017  70.3822 0002262 271.0056  89.0844 14.98330549 44070,6950.191,96.107,573.628,570.484,0.0
55419.0,STARLINK-5629,PAYLOAD,2023-11-09 16:46:53,14.98342439,0.0001747,70.0017,70.0455,225.7423,134.3593,-0.00013518,-1.706e-05,0.0,0 STARLINK-5629,1 55419U 23014AE  23313.69923154 -.00001706  00000-0 -13518-3 0  9992,2 55419  70.0017  70.0455 0001747 225.7423 134.3593 14.98342439 43154,6950.154,96.106,573.234,570.805,0.0
55419.0,STARLINK-5629,PAYLOAD,2023-11-09 18:23:02,14.9832094,0.0002387,70.0019,69.8795,287.492,72.5978,0.00031472,3.663e-05,0.0,0 STARLINK-5629,1 55419U 23014AE  23313.76599678  .00003663  00000-0  31472-3 0  9991,2 55419  70.0019  69.8795 0002387 287.4920  72.5978 14.98320940 43161,6950.221,96.108,573.745,570.427,0.0
55419.0,STARLINK-5629,PAYLOAD,2023-11-10 13:36:39,14.98327745,0.0002366,70.002,67.8578,256.1803,103.9093,1.4467e-05,8e-07,0.0,0 STARLINK-5629,1 55419U 23014AE  23314.56711914  .00000080  00000-0  14467-4 0  9995,2 55419  70.0020  67.8578 0002366 256.1803 103.9093 14.98327745 44225,6950.2,96.107,573.709,570.42,0.0
55419.0,STARLINK-5629,PAYLOAD,2023-11-10 16:48:55,14.98330727,0.0002536,70.0019,67.5205,293.0209,67.0682,5.6299e-05,5.79e-06,0.0,0 STARLINK-5629,1 55419U 23014AE  23314.70063920  .00000579  00000-0  56299-4 0  9990,2 55419  70.0019  67.5205 0002536 293.0209  67.0682 14.98330727 44246,6950.191,96.107,573.818,570.293,0.0
55419.0,STARLINK-5629,PAYLOAD,2023-11-11 12:02:31,14.98332194,0.0002742,70.0011,65.5005,262.1026,97.9821,-1.6747e-05,-2.93e-06,0.0,0 STARLINK-5629,1 55419U 23014AE  23315.50175465 -.00000293  00000-0 -16747-4 0  9996,2 55419  70.0011  65.5005 0002742 262.1026  97.9821 14.98332194 43423,6950.186,96.107,573.957,570.145,0.0
55419.0,STARLINK-5629,PAYLOAD,2023-11-11 13:38:38,14.9834667,0.0002674,70.0014,65.3307,261.5914,98.4942,1.1842e-05,4.8e-07,0.0,0 STARLINK-5629,1 55419U 23014AE  23315.56850548  .00000048  00000-0  11842-4 0  9991,2 55419  70.0014  65.3307 0002674 261.5914  98.4942 14.98346670 44371,6950.141,96.106,573.865,570.148,0.0
55419.0,STARLINK-5629,PAYLOAD,2023-11-11 18:27:03,14.9833537,0.0002903,70.0007,64.8261,264.9577,95.125,-5.1295e-06,-1.54e-06,0.0,0 STARLINK-5629,1 55419U 23014AE  23315.76879150 -.00000154  00000-0 -51295-5 0  9990,2 55419  70.0007  64.8261 0002903 264.9577  95.1250 14.98335370 44408,6950.176,96.107,574.059,570.024,0.0
55419.0,STARLINK-5629,PAYLOAD,2023-11-12 00:51:36,14.98322371,0.0002579,70.0015,64.1526,272.1614,87.925,-2.6907e-07,-9.6e-07,0.0,0 STARLINK-5629,1 55419U 23014AE  23316.03584091 -.00000096  00000-0 -26907-6 0  9996,2 55419  70.0015  64.1526 0002579 272.1614  87.9250 14.98322371 43502,6950.216,96.107,573.874,570.289,0.0
55419.0,STARLINK-5629,PAYLOAD,2023-11-12 13:40:40,14.98333218,0.000289,70.0008,62.8062,264.3636,95.7194,3.5283e-05,3.28e-06,0.0,0 STARLINK-5629,1 55419U 23014AE  23316.56991160  .00000328  00000-0  35283-4 0  9994,2 55419  70.0008  62.8062 0002890 264.3636  95.7194 14.98333218 44526,6950.183,96.107,574.057,570.039,0.0
55419.0,STARLINK-5629,PAYLOAD,2023-11-12 16:52:56,14.98332487,0.0002917,70.0008,62.4697,264.2766,95.8061,4.2201e-05,4.11e-06,0.0,0 STARLINK-5629,1 55419U 23014AE  23316.70343165  .00000411  00000-0  42201-4 0  9997,2 55419  70.0008  62.4697 0002917 264.2766  95.8061 14.98332487 43608,6950.185,96.107,574.078,570.023,0.0
55419.0,STARLINK-5629,PAYLOAD,2023-11-13 12:06:32,14.98336128,0.0002982,70.0006,60.4496,266.682,93.3998,5.1163e-05,5.18e-06,0.0,0 STARLINK-5629,1 55419U 23014AE  23317.50454663  .00000518  00000-0  51163-4 0  9997,2 55419  70.0006  60.4496 0002982 266.6820  93.3998 14.98336128 44665,6950.174,96.107,574.111,569.966,0.0
55419.0,STARLINK-5629,PAYLOAD,2023-11-14 12:08:34,14.98321502,0.0002784,70.0013,57.9252,259.6724,100.4121,-5.9981e-05,-8.08e-06,0.0,0 STARLINK-5629,1 55419U 23014AE  23318.50595694 -.00000808  00000-0 -59981-4 0  9998,2 55419  70.0013  57.9252 0002784 259.6724 100.4121 14.98321502 43879,6950.219,96.108,574.019,570.149,0.0
55419.0,STARLINK-5629,PAYLOAD,2023-11-14 13:44:42,14.98327448,0.0002993,69.9999,57.7559,265.8877,94.194,-6.2357e-06,-1.67e-06,0.0,0 STARLINK-5629,1 55419U 23014AE  23318.57271265 -.00000167  00000-0 -62357-5 0  9990,2 55419  69.9999  57.7559 0002993 265.8877  94.1940 14.98327448 44826,6950.201,96.107,574.146,569.986,0.0
55419.0,STARLINK-5629,PAYLOAD,2023-11-15 12:10:34,14.98333477,0.0002451,70.002,55.4013,255.8841,104.2045,-1.7698e-05,-3.04e-06,0.0,0 STARLINK-5629,1 55419U 23014AE  23319.50734782 -.00000304  00000-0 -17698-4 0  9992,2 55419  70.0020  55.4013 0002451 255.8841 104.2045 14.98333477 44023,6950.182,96.107,573.751,570.344,0.0
55419.0,STARLINK-5629,PAYLOAD,2023-11-16 09:00:19,14.98339182,0.0002648,69.9998,53.2108,254.6633,105.4233,-0.00020035,-2.483e-05,0.0,0 STARLINK-5629,1 55419U 23014AE  23320.37522762 -.00002483  00000-0 -20035-3 0  9990,2 55419  69.9998  53.2108 0002648 254.6633 105.4233 14.98339182 45098,6950.164,96.106,573.87,570.189,0.0
55419.0,STARLINK-5629,PAYLOAD,2023-11-16 23:25:32,14.9831282,0.0002668,70.0013,51.6981,261.1876,98.8981,0.00022831,2.631e-05,0.0,0 STARLINK-5629,1 55419U 23014AE  23320.97607547  .00002631  00000-0  22831-3 0  9990,2 55419  70.0013  51.6981 0002668 261.1876  98.8981 14.98312820 44245,6950.246,96.108,573.965,570.257,0.0
55419.0,STARLINK-5629,PAYLOAD,2023-11-17 12:14:36,14.9833085,0.000294,70.0007,50.3516,268.2143,91.8679,-2.8562e-05,-4.34e-06,0.0,0 STARLINK-5629,1 55419U 23014AE  23321.51014894 -.00000434  00000-0 -28562-4 0  9997,2 55419  70.0007  50.3516 0002940 268.2143  91.8679 14.98330850 44325,6950.19,96.107,574.099,570.012,0.0
55419.0,STARLINK-5629,PAYLOAD,2023-11-17 15:26:53,14.98330124,0.0002903,70.0006,50.0148,266.4595,93.6232,-3.7206e-05,-5.37e-06,0.0,0 STARLINK-5629,1 55419U 23014AE  23321.64366951 -.00000537  00000-0 -37206-4 0  9994,2 55419  70.0006  50.0148 0002903 266.4595  93.6232 14.98330124 45287,6950.193,96.107,574.075,570.04,0.0
55419.0,STARLINK-5629,PAYLOAD,2023-11-18 12:16:37,14.98327983,0.0002847,70.0003,47.8251,263.6905,96.393,1.7465e-05,1.15e-06,0.0,0 STARLINK-5629,1 55419U 23014AE  23322.51154967  .00000115  00000-0  17465-4 0  9998,2 55419  70.0003  47.8251 0002847 263.6905  96.3930 14.98327983 44478,6950.199,96.107,574.043,570.085,0.0
55419.0,STARLINK-5629,PAYLOAD,2023-11-18 15:28:54,14.98327396,0.0002862,70.0003,47.4888,263.8774,96.2059,2.8962e-05,2.53e-06,0.0,0 STARLINK-5629,1 55419U 23014AE  23322.64507010  .00000253  00000-0  28962-4 0  9990,2 55419  70.0003  47.4888 0002862 263.8774  96.2059 14.98327396 45439,6950.201,96.107,574.055,570.077,0.0
55419.0,STARLINK-5629,PAYLOAD,2023-11-19 12:18:38,14.9833206,0.0002911,70.0006,45.3011,266.748,93.3346,7.5655e-05,8.1e-06,0.0,0 STARLINK-5629,1 55419U 23014AE  23323.51294555  .00000810  00000-0  75655-4 0  9994,2 55419  70.0006  45.3011 0002911 266.7480  93.3346 14.98332060 44629,6950.187,96.107,574.075,570.028,0.0
55419.0,STARLINK-5629,PAYLOAD,2023-11-19 13:54:46,14.98330188,0.0002862,70.0007,45.1324,266.9398,93.1433,3.6477e-05,3.42e-06,0.0,0 STARLINK-5629,1 55419U 23014AE  23323.57970786  .00000342  00000-0  36477-4 0  9996,2 55419  70.0007  45.1324 0002862 266.9398  93.1433 14.98330188 45579,6950.192,96.107,574.046,570.068,0.0
